SL-16 R/B               
1 22566U 93016B   26008.20935585 -.00000198  00000+0 -76966-4 0  9990
2 22566  71.0089 342.2086 0008301  44.9330 315.2463 14.15295827693611
COSMOS 2242             
1 22626U 93024A   26008.11994574  .00001815  00000+0  15812-3 0  9996
2 22626  82.5209 324.6287 0017283 143.6899 216.5499 14.96245121771331
SL-16 R/B               
1 22803U 93059B   26008.05916632 -.00000073  00000+0 -12158-4 0  9991
2 22803  70.9902 138.9862 0019232 298.7686  61.1506 14.17218685670942
ARIANE 40 R/B           
1 22830U 93061H   26008.15480309  .00000262  00000+0  11166-3 0  9997
2 22830  98.5034  78.1994 0011805 103.0382 257.2121 14.32821939685434
COSMOS 2278             
1 23087U 94023A   26008.12851969  .00000410  00000+0  23897-3 0  9991
2 23087  71.0550 301.8006 0007127 130.9724 229.2016 14.14359412636248
SL-16 R/B               
1 23088U 94023B   26007.99040851  .00000306  00000+0  18281-3 0  9991
2 23088  70.9983 198.3590 0002789 350.1946   9.9121 14.15001465637508
SL-16 R/B               
1 23343U 94074B   26008.12121122  .00000476  00000+0  70603-4 0  9993
2 23343  97.7176  41.3738 0007878  64.3760 350.8189 14.79325955678292
SL-16 R/B               
1 23405U 94077B   26007.99570020  .00000154  00000+0  10328-3 0  9994
2 23405  70.9827 120.1790 0004876 262.7930  97.2638 14.15550936607640
ARIANE 40+ R/B          
1 23561U 95021B   26008.20741488  .00000310  00000+0  11300-3 0  9995
2 23561  98.4613  80.4728 0006075 330.9722  47.7169 14.39719778610549
SL-16 R/B               
1 23705U 95058B   26008.14103411  .00000295  00000+0  17517-3 0  9994
2 23705  71.0230 307.3748 0013966 219.7737 140.2363 14.15487650559284
SL-16 R/B               
1 24298U 96051B   26008.18854923  .00000029  00000+0  42354-4 0  9994
2 24298  70.7599 303.2995 0019255 228.8747 131.0711 14.12399985513100
ORBVIEW 2 (SEASTAR)     
1 24883U 97037A   26008.05479632  .00000302  00000+0  12138-3 0  9995
2 24883  98.8474 170.7950 0001503 218.2993 141.8085 14.35440643499776
