CCSDS_OMM_VERS = 2.0
CREATION_DATE  = 
ORIGINATOR     = 

OBJECT_NAME    = SL-16 R/B
OBJECT_ID      = 1993-016B
CENTER_NAME    = EARTH
REF_FRAME      = TEME
TIME_SYSTEM    = UTC
MEAN_ELEMENT_THEORY = SGP/SGP4

EPOCH          = 2026-01-08T05:01:28.345440
MEAN_MOTION    = 14.15295827
ECCENTRICITY   = .0008301
INCLINATION    = 71.0089
RA_OF_ASC_NODE = 342.2086
ARG_OF_PERICENTER = 44.9330
MEAN_ANOMALY   = 315.2463

EPHEMERIS_TYPE = 0
CLASSIFICATION_TYPE = U
NORAD_CAT_ID   = 22566
ELEMENT_SET_NO = 999
REV_AT_EPOCH   = 69361
BSTAR          = -.76966E-4
MEAN_MOTION_DOT = -.198E-5
MEAN_MOTION_DDOT = 0

CCSDS_OMM_VERS = 2.0
CREATION_DATE  = 
ORIGINATOR     = 

OBJECT_NAME    = COSMOS 2242
OBJECT_ID      = 1993-024A
CENTER_NAME    = EARTH
REF_FRAME      = TEME
TIME_SYSTEM    = UTC
MEAN_ELEMENT_THEORY = SGP/SGP4

EPOCH          = 2026-01-08T02:52:43.311936
MEAN_MOTION    = 14.96245121
ECCENTRICITY   = .0017283
INCLINATION    = 82.5209
RA_OF_ASC_NODE = 324.6287
ARG_OF_PERICENTER = 143.6899
MEAN_ANOMALY   = 216.5499

EPHEMERIS_TYPE = 0
CLASSIFICATION_TYPE = U
NORAD_CAT_ID   = 22626
ELEMENT_SET_NO = 999
REV_AT_EPOCH   = 77133
BSTAR          = .15812E-3
MEAN_MOTION_DOT = .1815E-4
MEAN_MOTION_DDOT = 0

CCSDS_OMM_VERS = 2.0
CREATION_DATE  = 
ORIGINATOR     = 

OBJECT_NAME    = SL-16 R/B
OBJECT_ID      = 1993-059B
CENTER_NAME    = EARTH
REF_FRAME      = TEME
TIME_SYSTEM    = UTC
MEAN_ELEMENT_THEORY = SGP/SGP4

EPOCH          = 2026-01-08T01:25:11.970048
MEAN_MOTION    = 14.17218685
ECCENTRICITY   = .0019232
INCLINATION    = 70.9902
RA_OF_ASC_NODE = 138.9862
ARG_OF_PERICENTER = 298.7686
MEAN_ANOMALY   = 61.1506

EPHEMERIS_TYPE = 0
CLASSIFICATION_TYPE = U
NORAD_CAT_ID   = 22803
ELEMENT_SET_NO = 999
REV_AT_EPOCH   = 67094
BSTAR          = -.12158E-4
MEAN_MOTION_DOT = -.73E-6
MEAN_MOTION_DDOT = 0

CCSDS_OMM_VERS = 2.0
CREATION_DATE  = 
ORIGINATOR     = 

OBJECT_NAME    = ARIANE 40 R/B
OBJECT_ID      = 1993-061H
CENTER_NAME    = EARTH
REF_FRAME      = TEME
TIME_SYSTEM    = UTC
MEAN_ELEMENT_THEORY = SGP/SGP4

EPOCH          = 2026-01-08T03:42:54.986976
MEAN_MOTION    = 14.32821939
ECCENTRICITY   = .0011805
INCLINATION    = 98.5034
RA_OF_ASC_NODE = 78.1994
ARG_OF_PERICENTER = 103.0382
MEAN_ANOMALY   = 257.2121

EPHEMERIS_TYPE = 0
CLASSIFICATION_TYPE = U
NORAD_CAT_ID   = 22830
ELEMENT_SET_NO = 999
REV_AT_EPOCH   = 68543
BSTAR          = .11166E-3
MEAN_MOTION_DOT = .262E-5
MEAN_MOTION_DDOT = 0

CCSDS_OMM_VERS = 2.0
CREATION_DATE  = 
ORIGINATOR     = 

OBJECT_NAME    = COSMOS 2278
OBJECT_ID      = 1994-023A
CENTER_NAME    = EARTH
REF_FRAME      = TEME
TIME_SYSTEM    = UTC
MEAN_ELEMENT_THEORY = SGP/SGP4

EPOCH          = 2026-01-08T03:05:04.101216
MEAN_MOTION    = 14.14359412
ECCENTRICITY   = .0007127
INCLINATION    = 71.0550
RA_OF_ASC_NODE = 301.8006
ARG_OF_PERICENTER = 130.9724
MEAN_ANOMALY   = 229.2016

EPHEMERIS_TYPE = 0
CLASSIFICATION_TYPE = U
NORAD_CAT_ID   = 23087
ELEMENT_SET_NO = 999
REV_AT_EPOCH   = 63624
BSTAR          = .23897E-3
MEAN_MOTION_DOT = .41E-5
MEAN_MOTION_DDOT = 0

CCSDS_OMM_VERS = 2.0
CREATION_DATE  = 
ORIGINATOR     = 

OBJECT_NAME    = SL-16 R/B
OBJECT_ID      = 1994-023B
CENTER_NAME    = EARTH
REF_FRAME      = TEME
TIME_SYSTEM    = UTC
MEAN_ELEMENT_THEORY = SGP/SGP4

EPOCH          = 2026-01-07T23:46:11.295264
MEAN_MOTION    = 14.15001465
ECCENTRICITY   = .0002789
INCLINATION    = 70.9983
RA_OF_ASC_NODE = 198.3590
ARG_OF_PERICENTER = 350.1946
MEAN_ANOMALY   = 9.9121

EPHEMERIS_TYPE = 0
CLASSIFICATION_TYPE = U
NORAD_CAT_ID   = 23088
ELEMENT_SET_NO = 999
REV_AT_EPOCH   = 63750
BSTAR          = .18281E-3
MEAN_MOTION_DOT = .306E-5
MEAN_MOTION_DDOT = 0

CCSDS_OMM_VERS = 2.0
CREATION_DATE  = 
ORIGINATOR     = 

OBJECT_NAME    = SL-16 R/B
OBJECT_ID      = 1994-074B
CENTER_NAME    = EARTH
REF_FRAME      = TEME
TIME_SYSTEM    = UTC
MEAN_ELEMENT_THEORY = SGP/SGP4

EPOCH          = 2026-01-08T02:54:32.649408
MEAN_MOTION    = 14.79325955
ECCENTRICITY   = .0007878
INCLINATION    = 97.7176
RA_OF_ASC_NODE = 41.3738
ARG_OF_PERICENTER = 64.3760
MEAN_ANOMALY   = 350.8189

EPHEMERIS_TYPE = 0
CLASSIFICATION_TYPE = U
NORAD_CAT_ID   = 23343
ELEMENT_SET_NO = 999
REV_AT_EPOCH   = 67829
BSTAR          = .70603E-4
MEAN_MOTION_DOT = .476E-5
MEAN_MOTION_DDOT = 0

CCSDS_OMM_VERS = 2.0
CREATION_DATE  = 
ORIGINATOR     = 

OBJECT_NAME    = SL-16 R/B
OBJECT_ID      = 1994-077B
CENTER_NAME    = EARTH
REF_FRAME      = TEME
TIME_SYSTEM    = UTC
MEAN_ELEMENT_THEORY = SGP/SGP4

EPOCH          = 2026-01-07T23:53:48.497280
MEAN_MOTION    = 14.15550936
ECCENTRICITY   = .0004876
INCLINATION    = 70.9827
RA_OF_ASC_NODE = 120.1790
ARG_OF_PERICENTER = 262.7930
MEAN_ANOMALY   = 97.2638

EPHEMERIS_TYPE = 0
CLASSIFICATION_TYPE = U
NORAD_CAT_ID   = 23405
ELEMENT_SET_NO = 999
REV_AT_EPOCH   = 60764
BSTAR          = .10328E-3
MEAN_MOTION_DOT = .154E-5
MEAN_MOTION_DDOT = 0

CCSDS_OMM_VERS = 2.0
CREATION_DATE  = 
ORIGINATOR     = 

OBJECT_NAME    = ARIANE 40+ R/B
OBJECT_ID      = 1995-021B
CENTER_NAME    = EARTH
REF_FRAME      = TEME
TIME_SYSTEM    = UTC
MEAN_ELEMENT_THEORY = SGP/SGP4

EPOCH          = 2026-01-08T04:58:40.645632
MEAN_MOTION    = 14.39719778
ECCENTRICITY   = .0006075
INCLINATION    = 98.4613
RA_OF_ASC_NODE = 80.4728
ARG_OF_PERICENTER = 330.9722
MEAN_ANOMALY   = 47.7169

EPHEMERIS_TYPE = 0
CLASSIFICATION_TYPE = U
NORAD_CAT_ID   = 23561
ELEMENT_SET_NO = 999
REV_AT_EPOCH   = 61054
BSTAR          = .113E-3
MEAN_MOTION_DOT = .31E-5
MEAN_MOTION_DDOT = 0

CCSDS_OMM_VERS = 2.0
CREATION_DATE  = 
ORIGINATOR     = 

OBJECT_NAME    = SL-16 R/B
OBJECT_ID      = 1995-058B
CENTER_NAME    = EARTH
REF_FRAME      = TEME
TIME_SYSTEM    = UTC
MEAN_ELEMENT_THEORY = SGP/SGP4

EPOCH          = 2026-01-08T03:23:05.347104
MEAN_MOTION    = 14.15487650
ECCENTRICITY   = .0013966
INCLINATION    = 71.0230
RA_OF_ASC_NODE = 307.3748
ARG_OF_PERICENTER = 219.7737
MEAN_ANOMALY   = 140.2363

EPHEMERIS_TYPE = 0
CLASSIFICATION_TYPE = U
NORAD_CAT_ID   = 23705
ELEMENT_SET_NO = 999
REV_AT_EPOCH   = 55928
BSTAR          = .17517E-3
MEAN_MOTION_DOT = .295E-5
MEAN_MOTION_DDOT = 0

CCSDS_OMM_VERS = 2.0
CREATION_DATE  = 
ORIGINATOR     = 

OBJECT_NAME    = SL-16 R/B
OBJECT_ID      = 1996-051B
CENTER_NAME    = EARTH
REF_FRAME      = TEME
TIME_SYSTEM    = UTC
MEAN_ELEMENT_THEORY = SGP/SGP4

EPOCH          = 2026-01-08T04:31:30.653472
MEAN_MOTION    = 14.12399985
ECCENTRICITY   = .0019255
INCLINATION    = 70.7599
RA_OF_ASC_NODE = 303.2995
ARG_OF_PERICENTER = 228.8747
MEAN_ANOMALY   = 131.0711

EPHEMERIS_TYPE = 0
CLASSIFICATION_TYPE = U
NORAD_CAT_ID   = 24298
ELEMENT_SET_NO = 999
REV_AT_EPOCH   = 51310
BSTAR          = .42354E-4
MEAN_MOTION_DOT = .29E-6
MEAN_MOTION_DDOT = 0

CCSDS_OMM_VERS = 2.0
CREATION_DATE  = 
ORIGINATOR     = 

OBJECT_NAME    = ORBVIEW 2 (SEASTAR)
OBJECT_ID      = 1997-037A
CENTER_NAME    = EARTH
REF_FRAME      = TEME
TIME_SYSTEM    = UTC
MEAN_ELEMENT_THEORY = SGP/SGP4

EPOCH          = 2026-01-08T01:18:54.402048
MEAN_MOTION    = 14.35440643
ECCENTRICITY   = .0001503
INCLINATION    = 98.8474
RA_OF_ASC_NODE = 170.7950
ARG_OF_PERICENTER = 218.2993
MEAN_ANOMALY   = 141.8085

EPHEMERIS_TYPE = 0
CLASSIFICATION_TYPE = U
NORAD_CAT_ID   = 24883
ELEMENT_SET_NO = 999
REV_AT_EPOCH   = 49977
BSTAR          = .12138E-3
MEAN_MOTION_DOT = .302E-5
MEAN_MOTION_DDOT = 0

